76P/West-Kohoutek-Ikemura,e,30.4854,84.1090,359.9470,3.469355,0.1525215,0.53920216,233.9276,01/08.0/2024,2000,g  8.0,12.0
# From MPEC 2023-TM6
77P/Longmore,e,24.3184,14.7646,196.6954,3.622598,0.1429466,0.35170822,40.0255,01/08.0/2024,2000,g  7.0,8.0
# From MPEC 2021-O56
78P/Gehrels,e,6.2569,210.5317,192.6762,3.735789,0.1364993,0.46315919,237.2998,01/08.0/2024,2000,g  5.5,8.0
# From MPC 94675
79P/du Toit-Hartley,e,3.1488,281.7710,280.5305,2.944058,0.1951123,0.61922582,19.4420,01/08.0/2024,2000,g 16.0,4.0
# From MPEC 2023-RF3
80P/Peters-Hartley,e,29.9231,259.7883,339.2625,4.022736,0.1221580,0.59832167,48.2754,01/08.0/2024,2000,g  9.0,8.0
# From MPEC 2023-W26
81P/Wild,e,3.2367,136.0941,41.5974,3.453112,0.1535989,0.53725055,59.6608,01/08.0/2024,2000,g  7.0,6.0
# From MPC133426
82P/Gehrels,e,1.1291,239.2387,226.4074,4.132407,0.1173274,0.12237918,237.6120,01/08.0/2024,2000,g 15.0,4.0
# From NK 932
83D/Russell,e,17.8255,226.3082,334.4386,3.843955,0.1307786,0.44144169,125.5942,01/08.0/2024,2000,g  9.0,4.0
# From MPEC 2020-FB5
84P/Giclas,e,7.5510,108.1662,281.6378,3.550068,0.1473496,0.51606191,193.3490,01/08.0/2024,2000,g  9.5,8.0
# From unp
85D/Boethin,e,4.1742,65.2842,333.0654,5.043729,0.0870115,0.77632572,109.3515,01/08.0/2024,2000,g  6.5,8.0
# From MPEC 2022-YB4
86P/Wild,e,15.5014,72.1611,180.2685,3.617643,0.1432404,0.37152288,100.0071,01/08.0/2024,2000,g 11.0,6.0
# From MPEC 2020-SI8
87P/Bus,e,2.7739,187.4458,50.3496,4.249157,0.1125252,0.24855235,150.4004,01/08.0/2024,2000,g  7.2,10.0
# From MPEC 2023-J29
88P/Howell,e,4.3819,56.6654,235.9252,3.107026,0.1799645,0.56327783,215.8646,01/08.0/2024,2000,g 11.0,6.0
# From MPEC 2023-J29
89P/Russell,e,12.0721,41.3462,250.4007,3.752102,0.1356101,0.40784111,349.3403,01/08.0/2024,2000,g 11.5,6.0
# From MPEC 2022-K19
90P/Gehrels,e,9.6492,13.2176,29.0987,6.051821,0.0662026,0.51114803,158.2100,01/08.0/2024,2000,g  8.5,6.0
# From MPEC 2023-VM5
91P/Russell,e,15.4620,243.7248,358.7126,3.903869,0.1277795,0.33321508,147.7454,01/08.0/2024,2000,g  7.5,6.0
# From MPEC 2014-J58
92P/Sanguin,e,19.4969,181.3782,163.8021,5.342804,0.0798087,0.66061354,257.5471,01/08.0/2024,2000,g 12.0,6.0
# From NK 2707
93P/Lovas,e,12.2045,339.5900,74.9291,4.377641,0.1076078,0.61396219,268.9847,01/08.0/2024,2000,g  9.0,4.0
# From MPEC 2023_O39
94P/Russell,e,6.1879,70.8520,92.4085,3.510584,0.1498425,0.36564888,34.7558,01/08.0/2024,2000,g  9.0,6.0
# From MPC 75717
95P/Chiron,e,6.9224,209.1995,339.4269,13.71123,0.0194129,0.37664712,199.3057,01/08.0/2024,2000,g  6.5,2.0
# From MPEC 2023-N01
96P/Machholz,e,57.5344,93.9538,14.7436,3.030769,0.1867991,0.96161369,63.8671,01/08.0/2024,2000,g 13.0,4.8
# From MPC106348
96P-B/Machholz,e,57.5050,14.7284,93.9501,3.030182,0.1868534,0.96161633,63.8861,01/08.0/2024,2000,g 13.0,4.8
# From MPC103849
96P-C/Machholz,e,58.5311,94.3495,15.5380,3.011920,0.1885553,0.95889850,359.8715,07/14.0/2012,2000,g  9.0,4.0
# From MPEC 2022-C56
97P/Metcalf-Brewington,e,17.9492,184.1186,230.0421,4.765642,0.0947375,0.46030764,65.4703,01/08.0/2024,2000,g  5.5,6.0
# From MPEC 2021-W31
98P/Takamizawa,e,10.5684,114.6451,157.7415,3.790567,0.1335512,0.56250549,146.7565,01/08.0/2024,2000,g  9.0,8.0
# From MPEC 2024-A43
99P/Kowal,e,4.3395,28.0963,174.6989,6.097792,0.0654554,0.22854011,41.7338,01/08.0/2024,2000,g  4.5,6.0
# From MPEC 2023-OA6
100P/Hartley,e,25.5672,37.6859,181.9627,3.430553,0.1551165,0.41174038,79.9111,01/08.0/2024,2000,g  9.0,8.0
# From MPEC 2022-K19
101P/Chernykh,e,5.0495,116.2422,277.7911,5.812684,0.0703297,0.59630525,102.3677,01/08.0/2024,2000,g 10.0,4.8
# From MPC105241
101P-B/Chernykh,e,5.0499,278.5602,115.4756,5.828168,0.0700497,0.59651666,100.7144,01/08.0/2024,2000,g  9.0,4.0
# From MPEC 2022-C56
102P/Shoemaker,e,25.8738,339.4115,20.6565,3.818145,0.1321069,0.45672160,142.7394,01/08.0/2024,2000,g  6.5,8.0
# From MPEC 2024-A43
103P/Hartley,e,13.6107,219.7496,181.2994,3.474639,0.1521737,0.69375664,13.3138,01/08.0/2024,2000,g  8.5,8.0
# From MPEC 2023-G31
104P/Kowal,e,5.7032,207.2083,227.2543,3.208645,0.1714832,0.66583828,124.5193,01/08.0/2024,2000,g 16.0,4.0
# From MPEC 2024-A43
105P/SingerBrewster,e,9.1683,192.3969,46.3727,3.471095,0.1524068,0.40887593,301.9519,01/08.0/2024,2000,g 11.5,6.0
# From MPEC 2023-UR6
106P/Schuster,e,19.5406,48.8620,353.7617,3.766791,0.1348176,0.59393801,117.5561,01/08.0/2024,2000,g 14.0,4.8
# From MPEC 2015-M77
107P/Wilson-Harrington,e,2.7987,266.7565,95.4856,2.625116,0.2317296,0.63147277,116.1866,01/08.0/2024,2000,g  9.0,4.0
# From MPEC 2022-P82
108P/Ciffreo,e,11.4363,50.2974,354.4924,3.742261,0.1361454,0.55609560,115.6729,01/08.0/2024,2000,g  8.0,12.0
# From  105, 420
109P/Swift-Tuttle,e,113.5244,139.3986,153.1938,26.21126,0.0073447,0.96255204,83.3101,01/08.0/2024,2000,g  4.0,6.0
# From MPEC 2023-KD6
110P/Hartley,e,11.7067,287.4958,167.4923,3.603932,0.1440586,0.31895069,116.8826,01/08.0/2024,2000,g  1.0,12.0
# From MPC 75718
111P/Helin-Roman-Crockett,e,4.2258,89.8148,1.1731,4.151981,0.1164987,0.10708617,108.8572,01/08.0/2024,2000,g  5.0,8.0
# From MPEC 2021-S45
112P/Urata-Niijima,e,24.2107,31.8357,21.4920,3.523767,0.1490024,0.59081383,212.8484,01/08.0/2024,2000,g 14.0,6.0
# From MPEC 2023-VM5
113P/Spitaler,e,5.2880,306.6627,115.6152,3.693915,0.1388269,0.41995165,81.2587,01/08.0/2024,2000,g 13.5,4.0
# From MPEC 2023-A50
114P/Wiseman-Skiff,e,18.2991,271.0232,172.7604,3.541873,0.1478613,0.55585514,214.9532,01/08.0/2024,2000,g 11.5,6.0
# From MPEC 2023-J29
115P/Maury,e,11.6770,176.0136,120.9784,4.272216,0.1116155,0.51759748,140.4816,01/08.0/2024,2000,g 10.5,6.0
# From MPEC 2023-VM5
116P/Wild,e,3.6034,20.9730,173.2152,3.487881,0.1513079,0.37031653,81.7542,01/08.0/2024,2000,g  2.5,10.0
# From MPEC 2024-A43
117P/Helin-Roman-Alu,e,8.7053,58.8154,223.3972,4.091332,0.1190987,0.25605559,65.1752,01/08.0/2024,2000,g  2.5,8.0
# From MPEC 2023-XP6
118P/Shoemaker-Levy,e,10.0904,142.0884,314.8751,3.348030,0.1608867,0.45368097,65.8942,01/08.0/2024,2000,g 12.0,4.0
# From MPEC 2024-A43
119P/Parker-Hartley,e,7.3923,104.5612,322.1576,3.806980,0.1326885,0.38837454,68.1679,01/08.0/2024,2000,g  3.5,8.0
# From MPEC 2022-CN4
120P/Mueller,e,8.4876,358.7242,36.6977,3.967585,0.1247139,0.37476645,121.6226,01/08.0/2024,2000,g 12.0,4.0
# From MPEC 2024-A43
121P/Shoemaker-Holt,e,20.1632,94.1130,11.7220,4.585328,0.1003803,0.18644185,19.3576,01/08.0/2024,2000,g  6.5,8.0
# From MPC 75718
122P/de Vico,e,85.8922,79.7177,12.9912,17.62717,0.0133177,0.96243701,137.7112,01/08.0/2024,2000,g  7.5,5.2
# From MPEC 2021-F20
123P/West-Hartley,e,15.2795,45.9045,104.0306,3.881289,0.1288962,0.44428275,232.5505,01/08.0/2024,2000,g 12.2,4.0
# From MPEC 2023-T65
124P/Mrkos,e,31.4679,0.0814,185.1969,3.372365,0.1591484,0.48702100,217.1210,01/08.0/2024,2000,g 13.5,2.8
# From MPEC 2023-XP6
125P/Spacewatch,e,9.9849,153.1514,87.1404,3.129324,0.1780444,0.51213477,349.4426,01/08.0/2024,2000,g 13.0,6.0
# From MPEC 2024-A43
126P/IRAS,e,45.8709,357.8653,356.5848,5.635577,0.0736710,0.69649723,13.7544,01/08.0/2024,2000,g  6.0,8.0
# From MPEC 2024-A43
127P/Holt-Olmstead,e,14.3008,13.6068,6.2986,3.452621,0.1536317,0.35933002,79.2102,01/08.0/2024,2000,g 11.0,6.0
# From MPC 89014
128P/Shoemaker-Holt,e,4.3704,214.3412,210.3398,4.485871,0.1037371,0.32232234,264.5304,01/08.0/2024,2000,g  8.5,4.0
# From MPEC 2023-M14
129P/Shoemaker-Levy,e,3.4423,184.8609,307.5173,4.291214,0.1108750,0.08549019,44.7210,01/08.0/2024,2000,g 11.0,4.0
# From MPEC 2023-M14
130P/McNaught-Hughes,e,6.0636,70.1786,246.1241,3.381578,0.1584984,0.46090440,344.4871,01/08.0/2024,2000,g 10.0,6.0
# From MPC102101
131P/Mueller,e,7.3607,214.1782,179.1065,3.677294,0.1397692,0.34491174,252.4807,01/08.0/2024,2000,g 11.0,4.0
# From MPEC 2022-TD3
132P/Helin-Roman-Alu,e,5.3820,174.0325,216.4073,3.890130,0.1284570,0.56462308,100.9351,01/08.0/2024,2000,g 11.0,6.0
# From MPC 94676
133P/Elst-Pizarro,e,1.3897,160.1020,131.9166,3.164734,0.1750646,0.15610433,338.4101,01/08.0/2024,2000,g 15.4,2.0
# From MPC 89012
134P/Kowal-Vavrova,e,4.3350,202.0124,18.7900,6.266856,0.0628246,0.58506478,221.9951,01/08.0/2024,2000,g 11.5,4.0
# From MPEC 2022-OB6
135P/Shoemaker-Levy,e,6.0638,213.0196,22.3841,3.800251,0.1330411,0.29433132,85.2317,01/08.0/2024,2000,g  7.0,8.0
# From MPEC 2022-K19
136P/Mueller,e,9.4275,137.4973,225.1424,4.186685,0.1150532,0.29329914,318.4460,01/08.0/2024,2000,g 11.0,4.0
# From MPEC 2023-J29
137P/Shoemaker-Levy,e,4.8601,232.9276,141.2106,4.522205,0.1024893,0.57364765,189.5671,01/08.0/2024,2000,g 11.0,4.0
# From MPEC 2016-U66
138P/Shoemaker-Levy,e,10.0952,309.2965,95.6136,3.619143,0.1431514,0.53160442,244.6006,01/08.0/2024,2000,g 15.0,6.0
# From MPEC 2020-HN5
139P/Vaisala-Oterma,e,2.3372,242.1796,165.8252,4.516480,0.1026843,0.24829495,227.4520,01/08.0/2024,2000,g  9.5,4.0
# From MPEC 2015-E14
140P/Bowell-Skiff,e,3.8022,343.3094,172.4230,6.405931,0.0607898,0.69598395,187.6394,01/08.0/2024,2000,g 11.5,6.0
# From MPEC 2022-K19
141P/Machholz,e,13.9545,241.8110,153.5989,3.057563,0.1843491,0.73609528,205.9262,01/08.0/2024,2000,g 12.0,12.0
# From MPEC 2015-KD9
141P-A/Machholz,e,13.9441,153.5594,241.8643,3.057698,0.1843369,0.73609072,205.8800,01/08.0/2024,2000,g 12.0,12.0
# From MPC 24216
141P-B/Machholz,e,13.9880,153.6351,241.7536,3.056089,0.1844825,0.73584849,207.2296,01/08.0/2024,2000,g  9.0,4.0
# From MPC 37026
141P-D/Machholz,e,13.8362,153.2864,242.1119,3.066146,0.1835756,0.73704616,201.8858,01/08.0/2024,2000,g  9.0,4.0
# From MPEC 2015-R12
141P-E/Machholz,e,12.8152,246.1856,149.2667,3.012914,0.1884620,0.75023267,359.9529,09/19.0/1994,2000,g  9.0,4.0
# From MPEC 2015-R12
141P-F/Machholz,e,12.7898,246.1881,149.2374,3.010224,0.1887147,0.75000946,359.9630,09/19.0/1994,2000,g  9.0,4.0
# From MPEC 2015-R12
141P-G/Machholz,e,12.8259,246.3146,149.0784,3.005818,0.1891298,0.74964304,359.9802,09/19.0/1994,2000,g  9.0,4.0
# From MPC 95735
141P-H/Machholz,e,12.8431,246.0900,149.4500,3.008012,0.1889230,0.74682218,359.9270,08/24.0/2015,2000,g 18.5,4.0
# From MPEC 2022-SU8
141P-I/Machholz,e,13.9440,153.5137,241.8745,3.048180,0.1852009,0.73531598,206.9580,01/08.0/2024,2000,g 17.5,4.0
